{
  "type": "FeatureCollection",
  "features": [
    {
      "type": "Feature",
      "properties": {
        "norad_id": 66775,
        "name": "PHI 1",
        "group": "last-30-days",
        "lat": 66.9973382776612,
        "lon": 55.18654961686437,
        "alt_km": 501.45260072533983,
        "timestamp": "2025-12-27T13:34:48.006966+00:00",
        "meta_object_name": "PHI 1",
        "meta_object_id": "2025-276DP",
        "meta_epoch": "2025-12-27T03:47:35.953728",
        "meta_mean_motion": 15.18712757,
        "meta_eccentricity": 0.00025494,
        "meta_inclination": 97.4334,
        "meta_ra_of_asc_node": 72.6968,
        "meta_arg_of_pericenter": 62.3181,
        "meta_mean_anomaly": 297.8312,
        "meta_ephemeris_type": 0,
        "meta_classification_type": "U",
        "meta_norad_cat_id": 66775,
        "meta_element_set_no": 999,
        "meta_rev_at_epoch": 431,
        "meta_bstar": 0.0006201267,
        "meta_mean_motion_dot": 0.00012815,
        "meta_mean_motion_ddot": 0,
        "tle_line1": "1 66775U 25276DP  25361.15805502  .00012815  00000+0  62013-3 0  9997",
        "tle_line2": "2 66775  97.4334  72.6968 0002549  62.3181 297.8312 15.18712757  4316"
      },
      "geometry": {
        "type": "Point",
        "coordinates": [
          55.18654961686437,
          66.9973382776612
        ]
      }
    },
    {
      "type": "Feature",
      "properties": {
        "norad_id": 66776,
        "name": "TRANSPORTER-15DQ",
        "group": "last-30-days",
        "lat": 69.62920581758014,
        "lon": 52.51482941563951,
        "alt_km": 500.90105589500763,
        "timestamp": "2025-12-27T13:34:48.006976+00:00",
        "meta_object_name": "TRANSPORTER-15DQ",
        "meta_object_id": "2025-276DQ",
        "meta_epoch": "2025-12-27T05:21:45.268704",
        "meta_mean_motion": 15.18768962,
        "meta_eccentricity": 0.00027664,
        "meta_inclination": 97.4373,
        "meta_ra_of_asc_node": 72.7756,
        "meta_arg_of_pericenter": 75.9265,
        "meta_mean_anomaly": 284.2277,
        "meta_ephemeris_type": 0,
        "meta_classification_type": "U",
        "meta_norad_cat_id": 66776,
        "meta_element_set_no": 999,
        "meta_rev_at_epoch": 432,
        "meta_bstar": 0.00060188435,
        "meta_mean_motion_dot": 0.00012456,
        "meta_mean_motion_ddot": 0,
        "tle_line1": "1 66776U 25276DQ  25361.22344061  .00012456  00000+0  60188-3 0  9996",
        "tle_line2": "2 66776  97.4373  72.7756 0002766  75.9265 284.2277 15.18768962  4320"
      },
      "geometry": {
        "type": "Point",
        "coordinates": [
          52.51482941563951,
          69.62920581758014
        ]
      }
    },
    {
      "type": "Feature",
      "properties": {
        "norad_id": 66777,
        "name": "TRANSPORTER-15DR",
        "group": "last-30-days",
        "lat": 82.20208763620462,
        "lon": 0.39979463544227567,
        "alt_km": 498.95541557913566,
        "timestamp": "2025-12-27T13:34:48.006986+00:00",
        "meta_object_name": "TRANSPORTER-15DR",
        "meta_object_id": "2025-276DR",
        "meta_epoch": "2025-12-27T06:52:18.071328",
        "meta_mean_motion": 15.19026464,
        "meta_eccentricity": 0.00035018,
        "meta_inclination": 97.4461,
        "meta_ra_of_asc_node": 72.8753,
        "meta_arg_of_pericenter": 102.2313,
        "meta_mean_anomaly": 257.9314,
        "meta_ephemeris_type": 0,
        "meta_classification_type": "U",
        "meta_norad_cat_id": 66777,
        "meta_element_set_no": 999,
        "meta_rev_at_epoch": 433,
        "meta_bstar": 0.00065810649,
        "meta_mean_motion_dot": 0.00013731,
        "meta_mean_motion_ddot": 0,
        "tle_line1": "1 66777U 25276DR  25361.28632027  .00013731  00000+0  65811-3 0  9990",
        "tle_line2": "2 66777  97.4461  72.8753 0003501 102.2313 257.9314 15.19026464  4338"
      },
      "geometry": {
        "type": "Point",
        "coordinates": [
          0.39979463544227567,
          82.20208763620462
        ]
      }
    },
    {
      "type": "Feature",
      "properties": {
        "norad_id": 66778,
        "name": "TRANSPORTER-15DS",
        "group": "last-30-days",
        "lat": -72.33797063923849,
        "lon": -131.18934885919955,
        "alt_km": 524.390579801835,
        "timestamp": "2025-12-27T13:34:48.006996+00:00",
        "meta_object_name": "TRANSPORTER-15DS",
        "meta_object_id": "2025-276DS",
        "meta_epoch": "2025-12-18T19:26:21.991200",
        "meta_mean_motion": 15.16535337,
        "meta_eccentricity": 0.00032319,
        "meta_inclination": 97.4427,
        "meta_ra_of_asc_node": 64.4586,
        "meta_arg_of_pericenter": 41.3734,
        "meta_mean_anomaly": 318.7744,
        "meta_ephemeris_type": 0,
        "meta_classification_type": "U",
        "meta_norad_cat_id": 66778,
        "meta_element_set_no": 999,
        "meta_rev_at_epoch": 304,
        "meta_bstar": 0.00025483693,
        "meta_mean_motion_dot": 4.904e-05,
        "meta_mean_motion_ddot": 0,
        "tle_line1": "1 66778U 25276DS  25352.80997675  .00004904  00000+0  25484-3 0  9996",
        "tle_line2": "2 66778  97.4427  64.4586 0003231  41.3734 318.7744 15.16535337  3043"
      },
      "geometry": {
        "type": "Point",
        "coordinates": [
          -131.18934885919955,
          -72.33797063923849
        ]
      }
    },
    {
      "type": "Feature",
      "properties": {
        "norad_id": 66791,
        "name": "STARLINK-35867",
        "group": "last-30-days",
        "lat": 28.745449005753454,
        "lon": -160.19188719202666,
        "alt_km": 439.7987477885099,
        "timestamp": "2025-12-27T13:34:48.007008+00:00",
        "meta_object_name": "STARLINK-35867",
        "meta_object_id": "2025-278A",
        "meta_epoch": "2025-12-27T06:00:02.000160",
        "meta_mean_motion": 15.40708987,
        "meta_eccentricity": 0.00016275,
        "meta_inclination": 43.0003,
        "meta_ra_of_asc_node": 165.5692,
        "meta_arg_of_pericenter": 289.9524,
        "meta_mean_anomaly": 161.197,
        "meta_ephemeris_type": 0,
        "meta_classification_type": "U",
        "meta_norad_cat_id": 66791,
        "meta_element_set_no": 999,
        "meta_rev_at_epoch": 529,
        "meta_bstar": 0.0010108942,
        "meta_mean_motion_dot": 0.0004217,
        "meta_mean_motion_ddot": 0,
        "tle_line1": "1 66791U 25278A   25361.25002315  .00042170  00000+0  10109-2 0  9994",
        "tle_line2": "2 66791  43.0003 165.5692 0001627 289.9524 161.1970 15.40708987  5290"
      },
      "geometry": {
        "type": "Point",
        "coordinates": [
          -160.19188719202666,
          28.745449005753454
        ]
      }
    },
    {
      "type": "Feature",
      "properties": {
        "norad_id": 66792,
        "name": "STARLINK-35990",
        "group": "last-30-days",
        "lat": 25.950252581823996,
        "lon": -47.964191869570755,
        "alt_km": 411.32470273786566,
        "timestamp": "2025-12-27T13:34:48.007021+00:00",
        "meta_object_name": "STARLINK-35990",
        "meta_object_id": "2025-278B",
        "meta_epoch": "2025-12-27T03:42:13.597920",
        "meta_mean_motion": 15.50613758,
        "meta_eccentricity": 0.00015443,
        "meta_inclination": 42.9997,
        "meta_ra_of_asc_node": 165.9274,
        "meta_arg_of_pericenter": 274.2519,
        "meta_mean_anomaly": 85.8164,
        "meta_ephemeris_type": 0,
        "meta_classification_type": "U",
        "meta_norad_cat_id": 66792,
        "meta_element_set_no": 999,
        "meta_rev_at_epoch": 409,
        "meta_bstar": 0.0017853791,
        "meta_mean_motion_dot": 0.00105958,
        "meta_mean_motion_ddot": 0,
        "tle_line1": "1 66792U 25278B   25361.15432405  .00105958  00000+0  17854-2 0  9999",
        "tle_line2": "2 66792  42.9997 165.9274 0001544 274.2519  85.8164 15.50613758  4096"
      },
      "geometry": {
        "type": "Point",
        "coordinates": [
          -47.964191869570755,
          25.950252581823996
        ]
      }
    },
    {
      "type": "Feature",
      "properties": {
        "norad_id": 66793,
        "name": "STARLINK-36051",
        "group": "last-30-days",
        "lat": 23.695788276628797,
        "lon": -44.588492147046466,
        "alt_km": 411.6543377981734,
        "timestamp": "2025-12-27T13:34:48.007031+00:00",
        "meta_object_name": "STARLINK-36051",
        "meta_object_id": "2025-278C",
        "meta_epoch": "2025-12-27T03:41:14.284320",
        "meta_mean_motion": 15.50602721,
        "meta_eccentricity": 0.00013715,
        "meta_inclination": 42.9994,
        "meta_ra_of_asc_node": 165.9219,
        "meta_arg_of_pericenter": 274.0641,
        "meta_mean_anomaly": 86.0062,
        "meta_ephemeris_type": 0,
        "meta_classification_type": "U",
        "meta_norad_cat_id": 66793,
        "meta_element_set_no": 999,
        "meta_rev_at_epoch": 409,
        "meta_bstar": 0.0013323569,
        "meta_mean_motion_dot": 0.00078677,
        "meta_mean_motion_ddot": 0,
        "tle_line1": "1 66793U 25278C   25361.15363755  .00078677  00000+0  13324-2 0  9996",
        "tle_line2": "2 66793  42.9994 165.9219 0001371 274.0641  86.0062 15.50602721  4093"
      },
      "geometry": {
        "type": "Point",
        "coordinates": [
          -44.588492147046466,
          23.695788276628797
        ]
      }
    }
  ]
}